NUSAT-1 (FRESCO)        
1 41557U 16033B   22347.47412778  .00024165  00000+0  59779-3 0  9990
2 41557  97.3904  86.1141 0010950  96.8754 325.3603 15.40386118364889
BEESAT-4                
1 41619U 16040W   22347.40532405  .00025647  00000+0  70104-3 0  9991
2 41619  97.1921  33.6628 0007637 181.5088 178.6135 15.37335812348154
CAS-2T & KS-1Q          
1 41847U 16066G   22347.42197364  .00000859  00000+0  13736-3 0  9991
2 41847  98.5303  51.7334 0363155  34.4744 327.9430 14.38950690320082
NAYIF-1 (EO-88)         
1 42017U 17008BX  22346.60602032  .00029835  00000+0  69600-3 0  9996
2 42017  97.2468  50.7003 0003358 344.9602  15.1545 15.42174637324453
ZHUHAI-1 02 (CAS-4B)    
1 42759U 17034B   22347.47281752  .00006371  00000+0  36149-3 0  9998
2 42759  43.0172  64.9274 0011199 337.6934 135.1181 15.13490548303460
ZHUHAI-1 01 (CAS-4A)    
1 42761U 17034D   22347.49121477  .00006618  00000+0  37403-3 0  9998
2 42761  43.0174  63.4831 0011312 339.1308  95.3169 15.13586759303471
MAX VALIER SAT          
1 42778U 17036P   22347.37640732  .00014490  00000+0  49235-3 0  9998
2 42778  97.1835  22.4740 0011437  54.9952 305.2361 15.30509141304233
RADFXSAT (FOX-1B)       
1 43017U 17073E   22346.95117680  .00007084  00000+0  52289-3 0  9994
2 43017  97.6523 233.7671 0242907 322.9467  35.5184 14.82901703273558
FOX-1D (AO-92)          
1 43137U 18004AC  22346.44155479  .00017164  00000+0  52901-3 0  9995
2 43137  97.3521  60.2781 0008464  90.3554 269.8658 15.33639709273584
DIWATA-2B               
1 43678U 18084H   22347.54149722  .00001457  00000+0  14744-3 0  9990
2 43678  97.9947 123.2331 0010848  59.8702 300.3623 14.92545444224560
ES'HAIL 2               
1 43700U 18090A   22346.88452303  .00000161  00000+0  00000+0 0  9998
2 43700   0.0168 298.2257 0001600 357.0634 130.5174  1.00272566 14815
FOX-1CLIFF (AO-95)      
1 43770U 18099N   22346.87373590  .00003337  00000+0  29101-3 0  9998
2 43770  97.6010  48.4863 0015074  42.7952 317.4441 14.97441752219702
ITASAT 1                
1 43786U 18099AE  22346.58926271  .00003209  00000+0  28005-3 0  9993
2 43786  97.6027  49.2135 0015211  36.7065 323.5196 14.97441871219706
JY1SAT (JO-97)          
1 43803U 18099AX  22346.87057469  .00004268  00000+0  36373-3 0  9992
2 43803  97.6003  49.3158 0015397  35.5059 324.7185 14.98180224219772
UWE-4                   
1 43880U 18111E   22346.40434689  .00004330  00000+0  35851-3 0  9994
2 43880  97.6560 249.5909 0012539  87.1407 273.1251 14.99330107216358
NEXUS (FO-99)           
1 43937U 19003F   22347.02880844  .00018271  00000+0  52107-3 0  9997
2 43937  97.1120  13.8059 0016344 229.5663 130.4157 15.35972940217337
PSAT2 (NO-104)          
1 44354U 19036R   22347.39398602  .00169523  11444-5  77696-3 0  9990
2 44354  28.5209 355.6762 0136831 223.7693 135.1998 15.69494634192498
JAISAT-1                
1 44419U 19038F   22346.65327169  .00011238  00000+0  51084-3 0  9994
2 44419  97.6586 318.8163 0015785 231.4654 128.5167 15.20811010190106
DUCHIFAT-3              
1 44854U 19089C   22347.44278816  .00005935  00000+0  44306-3 0  9991
2 44854  36.9635 118.1957 0007846 245.1840 161.1134 15.02564538164850
CAS-6 (TIANQIN 1)       
1 44881U 19093C   22347.45289764  .00000834  00000+0  11175-3 0  9992
2 44881  97.8806  63.9866 0014181 328.4546  31.5819 14.81968516161284
RS-44 & BREEZE-KM R/B   
1 44909U 19096E   22346.44570267  .00000024  00000+0  60294-4 0  9993
2 44909  82.5205 112.0361 0216470 263.5013  94.1403 12.79716955138278
ORBITAL FACTORY 2 (OF-2)
1 45113U 19071C   22346.16145994  .00073863  00000+0  91549-3 0  9995
2 45113  51.6347 257.8654 0011513 113.7297 246.4905 15.59305173160950
HUSKYSAT-1 (HO-107)     
1 45119U 19071J   22346.16702424  .00057786  00000+0  80845-3 0  9991
2 45119  51.6343 260.1180 0011167 108.8643 251.3560 15.56181134160912
BY70-2                  
1 45857U 20042B   22347.40698492  .00011114  00000+0  13873-2 0  9998
2 45857  97.9443  62.7235 0009203 249.6224 110.4004 14.82524723131941
SALSAT                  
1 46495U 20068K   22346.49150936  .00002845  00000+0  20192-3 0  9993
2 46495  97.7502 288.1075 0017535  39.1713 321.0778 15.05454438120961
BY70-3                  
1 46839U 20079N   22347.55044237  .00052460  00000+0  82627-3 0  9990
2 46839  97.1790  58.2476 0004562  53.1072  55.3483 15.53402403117927
RADFXSAT-2 (AO-109)     
1 47311U 21002C   22346.65977262  .00011928  00000+0  42161-3 0  9999
2 47311  60.6850  49.8357 0038814  81.8682 278.6808 15.28920331105689
UVSQ-SAT                
1 47438U 21006AB  22346.60565369  .00007815  00000+0  38543-3 0  9998
2 47438  97.4139  41.9839 0011804  23.8760 336.3019 15.18131378104283
DIY-1 (ARDUIQUBE)       
1 47963U 21022AH  22346.70252763  .00028983  00000+0  13041-2 0  9995
2 47963  97.5169 246.5974 0011646 234.7972 125.2174 15.20993978 93969
XW-3 (CAS-9)            
1 50466U 21131B   22347.41580143  .00000342  00000+0  12638-3 0  9994
2 50466  98.5684  64.4705 0003921 348.1424  11.9670 14.38592885 50642
TEVEL-3                 
1 50988U 22002E   22347.27985669  .00011820  00000+0  59509-3 0  9998
2 50988  97.4620  51.3770 0009655 156.9495 275.9658 15.17311640 50508
TEVEL-8                 
1 50989U 22002F   22347.29046204  .00011956  00000+0  60282-3 0  9994
2 50989  97.4630  51.4242 0009839 155.5854 272.8732 15.17256619 50506
TEVEL-5                 
1 50998U 22002Q   22347.30623411  .00012481  00000+0  61796-3 0  9992
2 50998  97.4605  51.6115 0011125 151.9563 277.1379 15.17869124 50525
TEVEL-6                 
1 50999U 22002R   22347.42678299  .00012493  00000+0  61835-3 0  9997
2 50999  97.4610  51.7275 0011227 151.1743 221.3847 15.17878662 50545
TEVEL-1                 
1 51013U 22002AF  22347.55539957  .00011886  00000+0  59878-3 0  9995
2 51013  97.4611  51.6138 0009564 155.7614 311.8681 15.17288816 50546
TEVEL-7                 
1 51062U 22002CG  22347.56316080  .00012089  00000+0  60936-3 0  9993
2 51062  97.4624  51.6729 0009625 153.9637 311.8520 15.17263486 50541
TEVEL-4                 
1 51063U 22002CH  22347.56500212  .00012016  00000+0  60606-3 0  9990
2 51063  97.4620  51.6681 0009583 153.7289 312.1213 15.17244484 50549
TEVEL-2                 
1 51069U 22002CP  22347.55176595  .00011896  00000+0  59885-3 0  9990
2 51069  97.4616  51.6243 0009504 155.0184 312.5098 15.17314069 50548
GREENCUBE               
1 53106U 22080B   22340.05508001 -.00000003  00000+0  00000+0 0  9999
2 53106  70.1754  26.8219 0009008 228.0435 131.9458  6.42557522  9345
YUZGU 9 (RS3S)          
1 53308U 98067TT  22347.32796865  .00166007  00000+0  12540-2 0  9996
2 53308  51.6337 160.5481 0007120 210.4722 149.5863 15.71375715 22629
YUZGU 7 (RS1S)          
1 53309U 98067TU  22347.30235262  .00176875  00000+0  12874-2 0  9998
2 53309  51.6332 160.3690 0007611 214.3211 145.7296 15.72214956 22578
YUZGU 11 (RS5S)         
1 53310U 98067TV  22347.32671693  .00171130  00000+0  12892-2 0  9993
2 53310  51.6337 160.5391 0007362 211.9628 148.0924 15.71420927 22607
YUZGU 12 (RS6S)         
1 53311U 98067TW  22347.33891074  .00196778  00000+0  13739-2 0  9998
2 53311  51.6328 159.8593 0007089 212.3705 147.6860 15.73133996 22636
TSIOLKOVSKY-RYAZAN 1 (*)
1 53312U 98067TX  22347.37077235  .00171428  00000+0  12670-2 0  9996
2 53312  51.6341 160.0845 0007759 214.8491 145.2000 15.71869520 22579
TSIOLKOVSKY-RYAZAN 2 (*)
1 53313U 98067TY  22346.98387628  .00150303  00000+0  11138-2 0  9990
2 53313  51.6341 162.0007 0007425 213.8833 146.1691 15.71881470 22564
YUZGU 10 (RS4S)         
1 53321U 98067TZ  22347.37978177  .00171377  00000+0  12698-2 0  9994
2 53321  51.6331 160.1429 0007343 212.8118 147.2425 15.71814336 22624
RS29S (SXC3-2110 CYCLO*)
1 53373U 22096D   22347.37938925  .00016559  00000+0  61641-3 0  9990
2 53373  97.4284 248.0629 0003333  80.7902  56.4683 15.27553054 19229
RS32S (SXC3-212 MONITO*)
1 53374U 22096E   22347.35869150  .00014822  00000+0  55174-3 0  9997
2 53374  97.4280 248.0533 0003418  74.4155 353.8452 15.27578771 19225
RS34S (SXC3-218 KUZBAS*)
1 53375U 22096F   22347.57602745  .00013711  00000+0  51706-3 0  9990
2 53375  97.4284 248.2401 0003450  79.2665  21.5646 15.27166579 19257
RS23S (SXC3-21 UTMN)    
1 53376U 22096G   22347.57203519  .00014080  00000+0  52961-3 0  9991
2 53376  97.4279 248.2454 0003466  73.8938  24.6694 15.27246283 19258
RS28S (SXC3-214 MIET-A*)
1 53377U 22096H   22347.56915381  .00013052  00000+0  49244-3 0  9996
2 53377  97.4284 248.2448 0003494  76.0877   7.4962 15.27163211 19252
RS26S (KAI-1)           
1 53378U 22096J   22347.38411093  .00011822  00000+0  44934-3 0  9992
2 53378  97.4283 248.0435 0003420  70.6940  41.2392 15.26941538 19221
RS19S (SXC3-219 ISOI)   
1 53381U 22096M   22347.34388604  .00013565  00000+0  50368-3 0  9997
2 53381  97.4282 248.1072 0005161  24.9394 114.1834 15.27677162 19222
RS21S (CUBESX-HSE-2)    
1 53383U 22096P   22347.46609725  .00013781  00000+0  51062-3 0  9994
2 53383  97.4289 248.2398 0005301  25.2412  84.7869 15.27741872 19246
RS30S (SXC3-217 SIREN)  
1 53384U 22096Q   22347.47000955  .00011653  00000+0  43490-3 0  9998
2 53384  97.4287 248.2329 0005376  24.1289  84.2887 15.27544737 19247
RS20S (GEOSCAN-EDELVEIS)
1 53385U 22096R   22347.49480020  .00017403  00000+0  62831-3 0  9995
2 53385  97.4282 248.3477 0005769  22.1468  83.7430 15.28541658 19283
RS33S (SXC3-215 VIZARD) 
1 53386U 22096S   22347.39020565  .00020470  00000+0  71942-3 0  9990
2 53386  97.4276 248.3349 0006610  20.9207  90.6205 15.29384374 19264
